[{"OBJECT_NAME":"STARLINK-4645","OBJECT_ID":"2022-107AV","EPOCH":"2026-03-09T19:58:04.893312","MEAN_MOTION":15.088425,"ECCENTRICITY":0.0001382,"INCLINATION":53.2167,"RA_OF_ASC_NODE":263.572,"ARG_OF_PERICENTER":88.4399,"MEAN_ANOMALY":271.6752,"EPHEMERIS_TYPE":0,"CLASSIFICATION_TYPE":"U","NORAD_CAT_ID":53743,"ELEMENT_SET_NO":999,"REV_AT_EPOCH":19461,"BSTAR":1.2715346e-5,"MEAN_MOTION_DOT":-8.6e-7,"MEAN_MOTION_DDOT":0},{"OBJECT_NAME":"OBJECT J","OBJECT_ID":"2023-091J","EPOCH":"2026-03-09T22:57:45.383328","MEAN_MOTION":15.13201377,"ECCENTRICITY":0.00147906,"INCLINATION":97.519,"RA_OF_ASC_NODE":123.4537,"ARG_OF_PERICENTER":127.2759,"MEAN_ANOMALY":232.9824,"EPHEMERIS_TYPE":0,"CLASSIFICATION_TYPE":"U","NORAD_CAT_ID":57174,"ELEMENT_SET_NO":999,"REV_AT_EPOCH":14862,"BSTAR":0.00032020689,"MEAN_MOTION_DOT":5.634e-5,"MEAN_MOTION_DDOT":0}]
